{"type": "FeatureCollection", "features": [ {"type": "Feature", "properties": {"norad_id": 35593, "name": "COSMOS 2251 DEB", "group": "cosmos-2251-debris", "lat": 44.8623719029473, "lon": -56.18404989198522, "alt_km": 831.8445866333495, "timestamp": "2025-12-13T08:49:16.087960+00:00", "meta": {"OBJECT_NAME": "COSMOS 2251 DEB", "OBJECT_ID": "1993-036AML", "EPOCH": "2025-12-12T14:04:29.109792", "MEAN_MOTION": 14.25596217, "ECCENTRICITY": 0.01052134, "INCLINATION": 74.0859, "RA_OF_ASC_NODE": 288.7258, "ARG_OF_PERICENTER": 295.277, "MEAN_ANOMALY": 63.7504, "EPHEMERIS_TYPE": 0, "CLASSIFICATION_TYPE": "U", "NORAD_CAT_ID": 35593, "ELEMENT_SET_NO": 999, "REV_AT_EPOCH": 85063, "BSTAR": 0.0015351942, "MEAN_MOTION_DOT": 3.828e-05, "MEAN_MOTION_DDOT": 0}, "tle": {"line1": "1 35593U 93036AML 25346.58644803  .00003828  00000+0  15352-2 0  9992", "line2": "2 35593  74.0859 288.7258 0105213 295.2770  63.7504 14.25596217850633"}}, "geometry": {"type": "Point", "coordinates": [-56.18404989198522, 44.8623719029473]}}, {"type": "Feature", "properties": {"norad_id": 35594, "name": "COSMOS 2251 DEB", "group": "cosmos-2251-debris", "lat": 47.6566525171169, "lon": -93.32528927125747, "alt_km": 598.3089437518493, "timestamp": "2025-12-13T08:49:16.087970+00:00", "meta": {"OBJECT_NAME": "COSMOS 2251 DEB", "OBJECT_ID": "1993-036AMM", "EPOCH": "2025-12-11T07:49:43.768128", "MEAN_MOTION": 14.87869065, "ECCENTRICITY": 0.00302327, "INCLINATION": 73.8067, "RA_OF_ASC_NODE": 109.3962, "ARG_OF_PERICENTER": 220.7507, "MEAN_ANOMALY": 139.1411, "EPHEMERIS_TYPE": 0, "CLASSIFICATION_TYPE": "U", "NORAD_CAT_ID": 35594, "ELEMENT_SET_NO": 999, "REV_AT_EPOCH": 88164, "BSTAR": 0.003372362, "MEAN_MOTION_DOT": 0.00031222, "MEAN_MOTION_DDOT": 0}, "tle": {"line1": "1 35594U 93036AMM 25345.32620102  .00031222  00000+0  33724-2 0  9992", "line2": "2 35594  73.8067 109.3962 0030232 220.7507 139.1411 14.87869065881643"}}, "geometry": {"type": "Point", "coordinates": [-93.32528927125747, 47.6566525171169]}}, {"type": "Feature", "properties": {"norad_id": 35602, "name": "COSMOS 2251 DEB", "group": "cosmos-2251-debris", "lat": -11.997259232915624, "lon": 177.36545348338774, "alt_km": 476.14217000336885, "timestamp": "2025-12-13T08:49:16.087981+00:00", "meta": {"OBJECT_NAME": "COSMOS 2251 DEB", "OBJECT_ID": "1993-036AMV", "EPOCH": "2025-12-12T07:03:29.388096", "MEAN_MOTION": 15.3505049, "ECCENTRICITY": 0.00899184, "INCLINATION": 73.9939, "RA_OF_ASC_NODE": 183.1705, "ARG_OF_PERICENTER": 249.0477, "MEAN_ANOMALY": 287.9507, "EPHEMERIS_TYPE": 0, "CLASSIFICATION_TYPE": "U", "NORAD_CAT_ID": 35602, "ELEMENT_SET_NO": 999, "REV_AT_EPOCH": 90084, "BSTAR": 0.00062858431, "MEAN_MOTION_DOT": 0.00024456, "MEAN_MOTION_DDOT": 0}, "tle": {"line1": "1 35602U 93036AMV 25346.29409014  .00024456  00000+0  62858-3 0  9998", "line2": "2 35602  73.9939 183.1705 0089918 249.0477 287.9507 15.35050490900842"}}, "geometry": {"type": "Point", "coordinates": [177.36545348338774, -11.997259232915624]}}, {"type": "Feature", "properties": {"norad_id": 35605, "name": "COSMOS 2251 DEB", "group": "cosmos-2251-debris", "lat": 31.015457986145442, "lon": -14.718199872988984, "alt_km": 470.66144283441736, "timestamp": "2025-12-13T08:49:16.087991+00:00", "meta": {"OBJECT_NAME": "COSMOS 2251 DEB", "OBJECT_ID": "1993-036AMY", "EPOCH": "2025-12-12T17:01:50.307456", "MEAN_MOTION": 15.34101523, "ECCENTRICITY": 0.00256405, "INCLINATION": 73.8714, "RA_OF_ASC_NODE": 336.6853, "ARG_OF_PERICENTER": 268.7509, "MEAN_ANOMALY": 91.0757, "EPHEMERIS_TYPE": 0, "CLASSIFICATION_TYPE": "U", "NORAD_CAT_ID": 35605, "ELEMENT_SET_NO": 999, "REV_AT_EPOCH": 65971, "BSTAR": 0.0079032764, "MEAN_MOTION_DOT": 0.00273064, "MEAN_MOTION_DDOT": 0}, "tle": {"line1": "1 35605U 93036AMY 25346.70961004  .00273064  00000+0  79033-2 0  9992", "line2": "2 35605  73.8714 336.6853 0025640 268.7509  91.0757 15.34101523659711"}}, "geometry": {"type": "Point", "coordinates": [-14.718199872988984, 31.015457986145442]}}, {"type": "Feature", "properties": {"norad_id": 35606, "name": "COSMOS 2251 DEB", "group": "cosmos-2251-debris", "lat": -3.4868584169213315, "lon": 8.785316738212794, "alt_km": 1367.7848801201499, "timestamp": "2025-12-13T08:49:16.088001+00:00", "meta": {"OBJECT_NAME": "COSMOS 2251 DEB", "OBJECT_ID": "1993-036AMZ", "EPOCH": "2025-12-09T08:10:26.094720", "MEAN_MOTION": 13.41205491, "ECCENTRICITY": 0.04577322, "INCLINATION": 73.8107, "RA_OF_ASC_NODE": 16.2149, "ARG_OF_PERICENTER": 222.4362, "MEAN_ANOMALY": 134.0496, "EPHEMERIS_TYPE": 0, "CLASSIFICATION_TYPE": "U", "NORAD_CAT_ID": 35606, "ELEMENT_SET_NO": 999, "REV_AT_EPOCH": 60994, "BSTAR": 0.0014727579, "MEAN_MOTION_DOT": 1.492e-05, "MEAN_MOTION_DDOT": 0}, "tle": {"line1": "1 35606U 93036AMZ 25343.34057980  .00001492  00000+0  14728-2 0  9993", "line2": "2 35606  73.8107  16.2149 0457732 222.4362 134.0496 13.41205491609945"}}, "geometry": {"type": "Point", "coordinates": [8.785316738212794, -3.4868584169213315]}}, {"type": "Feature", "properties": {"norad_id": 35611, "name": "COSMOS 2251 DEB", "group": "cosmos-2251-debris", "lat": 51.710948246414546, "lon": -160.6380683845097, "alt_km": 661.3862513445292, "timestamp": "2025-12-13T08:49:16.088011+00:00", "meta": {"OBJECT_NAME": "COSMOS 2251 DEB", "OBJECT_ID": "1993-036ANE", "EPOCH": "2025-12-12T13:00:38.936448", "MEAN_MOTION": 14.7284119, "ECCENTRICITY": 0.00216473, "INCLINATION": 74.0197, "RA_OF_ASC_NODE": 179.6861, "ARG_OF_PERICENTER": 252.7152, "MEAN_ANOMALY": 107.1652, "EPHEMERIS_TYPE": 0, "CLASSIFICATION_TYPE": "U", "NORAD_CAT_ID": 35611, "ELEMENT_SET_NO": 999, "REV_AT_EPOCH": 87287, "BSTAR": 0.0030110834, "MEAN_MOTION_DOT": 0.00019366, "MEAN_MOTION_DDOT": 0}, "tle": {"line1": "1 35611U 93036ANE 25346.54211732  .00019366  00000+0  30111-2 0  9994", "line2": "2 35611  74.0197 179.6861 0021647 252.7152 107.1652 14.72841190872879"}}, "geometry": {"type": "Point", "coordinates": [-160.6380683845097, 51.710948246414546]}}, {"type": "Feature", "properties": {"norad_id": 35614, "name": "COSMOS 2251 DEB", "group": "cosmos-2251-debris", "lat": 18.135227515680317, "lon": 140.83904372895304, "alt_km": 620.2367966624852, "timestamp": "2025-12-13T08:49:16.088021+00:00", "meta": {"OBJECT_NAME": "COSMOS 2251 DEB", "OBJECT_ID": "1993-036ANH", "EPOCH": "2025-12-12T07:32:18.762720", "MEAN_MOTION": 14.67009102, "ECCENTRICITY": 0.00757653, "INCLINATION": 73.9591, "RA_OF_ASC_NODE": 328.2879, "ARG_OF_PERICENTER": 182.8749, "MEAN_ANOMALY": 177.1996, "EPHEMERIS_TYPE": 0, "CLASSIFICATION_TYPE": "U", "NORAD_CAT_ID": 35614, "ELEMENT_SET_NO": 999, "REV_AT_EPOCH": 87723, "BSTAR": 0.0012957027, "MEAN_MOTION_DOT": 7.557e-05, "MEAN_MOTION_DDOT": 0}, "tle": {"line1": "1 35614U 93036ANH 25346.31410605  .00007557  00000+0  12957-2 0  9999", "line2": "2 35614  73.9591 328.2879 0075765 182.8749 177.1996 14.67009102877230"}}, "geometry": {"type": "Point", "coordinates": [140.83904372895304, 18.135227515680317]}}, {"type": "Feature", "properties": {"norad_id": 35645, "name": "COSMOS 2251 DEB", "group": "cosmos-2251-debris", "lat": -11.595042113741172, "lon": -90.06014806133638, "alt_km": 713.4541900387167, "timestamp": "2025-12-13T08:49:16.088031+00:00", "meta": {"OBJECT_NAME": "COSMOS 2251 DEB", "OBJECT_ID": "1993-036ANL", "EPOCH": "2025-12-12T07:00:59.153184", "MEAN_MOTION": 14.45577507, "ECCENTRICITY": 0.00695433, "INCLINATION": 73.9639, "RA_OF_ASC_NODE": 88.5696, "ARG_OF_PERICENTER": 246.364, "MEAN_ANOMALY": 113.0207, "EPHEMERIS_TYPE": 0, "CLASSIFICATION_TYPE": "U", "NORAD_CAT_ID": 35645, "ELEMENT_SET_NO": 999, "REV_AT_EPOCH": 86765, "BSTAR": 0.0034352033, "MEAN_MOTION_DOT": 0.00012492, "MEAN_MOTION_DDOT": 0}, "tle": {"line1": "1 35645U 93036ANL 25346.29235131  .00012492  00000+0  34352-2 0  9996", "line2": "2 35645  73.9639  88.5696 0069543 246.3640 113.0207 14.45577507867657"}}, "geometry": {"type": "Point", "coordinates": [-90.06014806133638, -11.595042113741172]}}, {"type": "Feature", "properties": {"norad_id": 35646, "name": "COSMOS 2251 DEB", "group": "cosmos-2251-debris", "lat": -59.97339965815202, "lon": -94.92714298677703, "alt_km": 1033.7684953394164, "timestamp": "2025-12-13T08:49:16.088042+00:00", "meta": {"OBJECT_NAME": "COSMOS 2251 DEB", "OBJECT_ID": "1993-036ANM", "EPOCH": "2025-12-11T14:49:41.257632", "MEAN_MOTION": 13.40818919, "ECCENTRICITY": 0.04570406, "INCLINATION": 73.8724, "RA_OF_ASC_NODE": 57.8087, "ARG_OF_PERICENTER": 168.1759, "MEAN_ANOMALY": 268.2989, "EPHEMERIS_TYPE": 0, "CLASSIFICATION_TYPE": "U", "NORAD_CAT_ID": 35646, "ELEMENT_SET_NO": 999, "REV_AT_EPOCH": 81843, "BSTAR": 0.00139883, "MEAN_MOTION_DOT": 1.406e-05, "MEAN_MOTION_DDOT": 0}, "tle": {"line1": "1 35646U 93036ANM 25345.61783863  .00001406  00000+0  13988-2 0  9997", "line2": "2 35646  73.8724  57.8087 0457040 168.1759 268.2989 13.40818919818431"}}, "geometry": {"type": "Point", "coordinates": [-94.92714298677703, -59.97339965815202]}}, {"type": "Feature", "properties": {"norad_id": 35647, "name": "COSMOS 2251 DEB", "group": "cosmos-2251-debris", "lat": -70.68415718685569, "lon": 168.22065358320194, "alt_km": 775.6216256841881, "timestamp": "2025-12-13T08:49:16.088052+00:00", "meta": {"OBJECT_NAME": "COSMOS 2251 DEB", "OBJECT_ID": "1993-036ANN", "EPOCH": "2025-12-12T05:00:52.197408", "MEAN_MOTION": 14.43629477, "ECCENTRICITY": 0.00454864, "INCLINATION": 74.0232, "RA_OF_ASC_NODE": 295.5523, "ARG_OF_PERICENTER": 34.8283, "MEAN_ANOMALY": 325.5835, "EPHEMERIS_TYPE": 0, "CLASSIFICATION_TYPE": "U", "NORAD_CAT_ID": 35647, "ELEMENT_SET_NO": 999, "REV_AT_EPOCH": 67656, "BSTAR": 0.0013504797, "MEAN_MOTION_DOT": 4.615e-05, "MEAN_MOTION_DDOT": 0}, "tle": {"line1": "1 35647U 93036ANN 25346.20893747  .00004615  00000+0  13505-2 0  9997", "line2": "2 35647  74.0232 295.5523 0045486  34.8283 325.5835 14.43629477676569"}}, "geometry": {"type": "Point", "coordinates": [168.22065358320194, -70.68415718685569]}}]}